SDA-1664                
1 65974U 25230A   25302.80720931  .00000245  00000+0  20697-3 0  9992
2 65974  81.2983  65.3520 0003538  74.3316 285.8231 13.84695564  1920
SDA-1665                
1 65975U 25230B   25302.87216788  .00000438  00000+0  37415-3 0  9990
2 65975  81.3020  65.2837 0004939 117.2351 242.9310 13.85427007  1935
SDA-1666                
1 65976U 25230C   25302.80791968  .00000207  00000+0  17379-3 0  9993
2 65976  81.2991  65.3545 0003201  71.2743 288.8761 13.84623987  1926
SDA-1667                
1 65977U 25230D   25302.87766939  .00000210  00000+0  17585-3 0  9994
2 65977  81.2987  65.2832 0004025  84.9277 275.2339 13.84874965  1934
SDA-1668                
1 65978U 25230E   25302.79953777  .00000201  00000+0  16614-3 0  9996
2 65978  81.3004  65.3430 0004917 120.0093 240.1553 13.85466452  1926
SDA-1669                
1 65979U 25230F   25302.80185095  .00000265  00000+0  22304-3 0  9992
2 65979  81.3006  65.3467 0005094 107.6126 252.5588 13.85234022  1925
SDA-1670                
1 65980U 25230G   25302.80606458  .00000199  00000+0  16613-3 0  9997
2 65980  81.2984  65.3503 0003785  81.8741 278.2845 13.84810005  1924
SDA-1671                
1 65981U 25230H   25302.87280549  .00000462  00000+0  39579-3 0  9993
2 65981  81.3011  65.2782 0005016 114.2485 245.9197 13.85362412  1937
SDA-1672                
1 65982U 25230J   25302.80464173  .00000318  00000+0  27093-3 0  9992
2 65982  81.3017  65.3531 0004389  87.5484 272.6175 13.84953824  1924
SDA-1673                
1 65983U 25230K   25302.79868069  .00000236  00000+0  19654-3 0  9996
2 65983  81.3016  65.3466 0005036 124.7642 235.3990 13.85552786  1925
SDA-1674                
1 65984U 25230L   25302.87247076  .00000367  00000+0  31231-3 0  9995
2 65984  81.3007  65.2773 0004953 116.0484 244.1183 13.85396164  1930
SDA-1675                
1 65985U 25230M   25302.87918373  .00000204  00000+0  17076-3 0  9992
2 65985  81.2983  65.2845 0003609  76.2373 283.9185 13.84723687  1930
