CCSDS_OMM_VERS = 2.0
CREATION_DATE  = 
ORIGINATOR     = 

OBJECT_NAME    = SDA-1664
OBJECT_ID      = 2025-230A
CENTER_NAME    = EARTH
REF_FRAME      = TEME
TIME_SYSTEM    = UTC
MEAN_ELEMENT_THEORY = SGP/SGP4

EPOCH          = 2025-10-29T19:22:22.884384
MEAN_MOTION    = 13.84695564
ECCENTRICITY   = .00035387
INCLINATION    = 81.2983
RA_OF_ASC_NODE = 65.3520
ARG_OF_PERICENTER = 74.3316
MEAN_ANOMALY   = 285.8231

EPHEMERIS_TYPE = 0
CLASSIFICATION_TYPE = U
NORAD_CAT_ID   = 65974
ELEMENT_SET_NO = 999
REV_AT_EPOCH   = 192
BSTAR          = .20697212E-3
MEAN_MOTION_DOT = .245E-5
MEAN_MOTION_DDOT = 0

CCSDS_OMM_VERS = 2.0
CREATION_DATE  = 
ORIGINATOR     = 

OBJECT_NAME    = SDA-1665
OBJECT_ID      = 2025-230B
CENTER_NAME    = EARTH
REF_FRAME      = TEME
TIME_SYSTEM    = UTC
MEAN_ELEMENT_THEORY = SGP/SGP4

EPOCH          = 2025-10-29T20:55:55.304832
MEAN_MOTION    = 13.85427007
ECCENTRICITY   = .00049396
INCLINATION    = 81.3020
RA_OF_ASC_NODE = 65.2837
ARG_OF_PERICENTER = 117.2351
MEAN_ANOMALY   = 242.9310

EPHEMERIS_TYPE = 0
CLASSIFICATION_TYPE = U
NORAD_CAT_ID   = 65975
ELEMENT_SET_NO = 999
REV_AT_EPOCH   = 193
BSTAR          = .374146E-3
MEAN_MOTION_DOT = .438E-5
MEAN_MOTION_DDOT = 0

CCSDS_OMM_VERS = 2.0
CREATION_DATE  = 
ORIGINATOR     = 

OBJECT_NAME    = SDA-1666
OBJECT_ID      = 2025-230C
CENTER_NAME    = EARTH
REF_FRAME      = TEME
TIME_SYSTEM    = UTC
MEAN_ELEMENT_THEORY = SGP/SGP4

EPOCH          = 2025-10-29T19:23:24.260352
MEAN_MOTION    = 13.84623987
ECCENTRICITY   = .00032012
INCLINATION    = 81.2991
RA_OF_ASC_NODE = 65.3545
ARG_OF_PERICENTER = 71.2743
MEAN_ANOMALY   = 288.8761

EPHEMERIS_TYPE = 0
CLASSIFICATION_TYPE = U
NORAD_CAT_ID   = 65976
ELEMENT_SET_NO = 999
REV_AT_EPOCH   = 192
BSTAR          = .17379259E-3
MEAN_MOTION_DOT = .207E-5
MEAN_MOTION_DDOT = 0

CCSDS_OMM_VERS = 2.0
CREATION_DATE  = 
ORIGINATOR     = 

OBJECT_NAME    = SDA-1667
OBJECT_ID      = 2025-230D
CENTER_NAME    = EARTH
REF_FRAME      = TEME
TIME_SYSTEM    = UTC
MEAN_ELEMENT_THEORY = SGP/SGP4

EPOCH          = 2025-10-29T21:03:50.635296
MEAN_MOTION    = 13.84874965
ECCENTRICITY   = .00040251
INCLINATION    = 81.2987
RA_OF_ASC_NODE = 65.2832
ARG_OF_PERICENTER = 84.9277
MEAN_ANOMALY   = 275.2339

EPHEMERIS_TYPE = 0
CLASSIFICATION_TYPE = U
NORAD_CAT_ID   = 65977
ELEMENT_SET_NO = 999
REV_AT_EPOCH   = 193
BSTAR          = .17585472E-3
MEAN_MOTION_DOT = .21E-5
MEAN_MOTION_DDOT = 0

CCSDS_OMM_VERS = 2.0
CREATION_DATE  = 
ORIGINATOR     = 

OBJECT_NAME    = SDA-1668
OBJECT_ID      = 2025-230E
CENTER_NAME    = EARTH
REF_FRAME      = TEME
TIME_SYSTEM    = UTC
MEAN_ELEMENT_THEORY = SGP/SGP4

EPOCH          = 2025-10-29T19:11:20.063328
MEAN_MOTION    = 13.85466452
ECCENTRICITY   = .00049173
INCLINATION    = 81.3004
RA_OF_ASC_NODE = 65.3430
ARG_OF_PERICENTER = 120.0093
MEAN_ANOMALY   = 240.1553

EPHEMERIS_TYPE = 0
CLASSIFICATION_TYPE = U
NORAD_CAT_ID   = 65978
ELEMENT_SET_NO = 999
REV_AT_EPOCH   = 192
BSTAR          = .16614035E-3
MEAN_MOTION_DOT = .201E-5
MEAN_MOTION_DDOT = 0

CCSDS_OMM_VERS = 2.0
CREATION_DATE  = 
ORIGINATOR     = 

OBJECT_NAME    = SDA-1669
OBJECT_ID      = 2025-230F
CENTER_NAME    = EARTH
REF_FRAME      = TEME
TIME_SYSTEM    = UTC
MEAN_ELEMENT_THEORY = SGP/SGP4

EPOCH          = 2025-10-29T19:14:39.922080
MEAN_MOTION    = 13.85234022
ECCENTRICITY   = .00050942
INCLINATION    = 81.3006
RA_OF_ASC_NODE = 65.3467
ARG_OF_PERICENTER = 107.6126
MEAN_ANOMALY   = 252.5588

EPHEMERIS_TYPE = 0
CLASSIFICATION_TYPE = U
NORAD_CAT_ID   = 65979
ELEMENT_SET_NO = 999
REV_AT_EPOCH   = 192
BSTAR          = .22304165E-3
MEAN_MOTION_DOT = .265E-5
MEAN_MOTION_DDOT = 0

CCSDS_OMM_VERS = 2.0
CREATION_DATE  = 
ORIGINATOR     = 

OBJECT_NAME    = SDA-1670
OBJECT_ID      = 2025-230G
CENTER_NAME    = EARTH
REF_FRAME      = TEME
TIME_SYSTEM    = UTC
MEAN_ELEMENT_THEORY = SGP/SGP4

EPOCH          = 2025-10-29T19:20:43.979712
MEAN_MOTION    = 13.84810005
ECCENTRICITY   = .00037852
INCLINATION    = 81.2984
RA_OF_ASC_NODE = 65.3503
ARG_OF_PERICENTER = 81.8741
MEAN_ANOMALY   = 278.2845

EPHEMERIS_TYPE = 0
CLASSIFICATION_TYPE = U
NORAD_CAT_ID   = 65980
ELEMENT_SET_NO = 999
REV_AT_EPOCH   = 192
BSTAR          = .16613353E-3
MEAN_MOTION_DOT = .199E-5
MEAN_MOTION_DDOT = 0

CCSDS_OMM_VERS = 2.0
CREATION_DATE  = 
ORIGINATOR     = 

OBJECT_NAME    = SDA-1671
OBJECT_ID      = 2025-230H
CENTER_NAME    = EARTH
REF_FRAME      = TEME
TIME_SYSTEM    = UTC
MEAN_ELEMENT_THEORY = SGP/SGP4

EPOCH          = 2025-10-29T20:56:50.394336
MEAN_MOTION    = 13.85362412
ECCENTRICITY   = .00050166
INCLINATION    = 81.3011
RA_OF_ASC_NODE = 65.2782
ARG_OF_PERICENTER = 114.2485
MEAN_ANOMALY   = 245.9197

EPHEMERIS_TYPE = 0
CLASSIFICATION_TYPE = U
NORAD_CAT_ID   = 65981
ELEMENT_SET_NO = 999
REV_AT_EPOCH   = 193
BSTAR          = .39578993E-3
MEAN_MOTION_DOT = .462E-5
MEAN_MOTION_DDOT = 0

CCSDS_OMM_VERS = 2.0
CREATION_DATE  = 
ORIGINATOR     = 

OBJECT_NAME    = SDA-1672
OBJECT_ID      = 2025-230J
CENTER_NAME    = EARTH
REF_FRAME      = TEME
TIME_SYSTEM    = UTC
MEAN_ELEMENT_THEORY = SGP/SGP4

EPOCH          = 2025-10-29T19:18:41.045472
MEAN_MOTION    = 13.84953824
ECCENTRICITY   = .00043894
INCLINATION    = 81.3017
RA_OF_ASC_NODE = 65.3531
ARG_OF_PERICENTER = 87.5484
MEAN_ANOMALY   = 272.6175

EPHEMERIS_TYPE = 0
CLASSIFICATION_TYPE = U
NORAD_CAT_ID   = 65982
ELEMENT_SET_NO = 999
REV_AT_EPOCH   = 192
BSTAR          = .27093061E-3
MEAN_MOTION_DOT = .318E-5
MEAN_MOTION_DDOT = 0

CCSDS_OMM_VERS = 2.0
CREATION_DATE  = 
ORIGINATOR     = 

OBJECT_NAME    = SDA-1673
OBJECT_ID      = 2025-230K
CENTER_NAME    = EARTH
REF_FRAME      = TEME
TIME_SYSTEM    = UTC
MEAN_ELEMENT_THEORY = SGP/SGP4

EPOCH          = 2025-10-29T19:10:06.011616
MEAN_MOTION    = 13.85552786
ECCENTRICITY   = .00050361
INCLINATION    = 81.3016
RA_OF_ASC_NODE = 65.3466
ARG_OF_PERICENTER = 124.7642
MEAN_ANOMALY   = 235.3990

EPHEMERIS_TYPE = 0
CLASSIFICATION_TYPE = U
NORAD_CAT_ID   = 65983
ELEMENT_SET_NO = 999
REV_AT_EPOCH   = 192
BSTAR          = .19654305E-3
MEAN_MOTION_DOT = .236E-5
MEAN_MOTION_DDOT = 0

CCSDS_OMM_VERS = 2.0
CREATION_DATE  = 
ORIGINATOR     = 

OBJECT_NAME    = SDA-1674
OBJECT_ID      = 2025-230L
CENTER_NAME    = EARTH
REF_FRAME      = TEME
TIME_SYSTEM    = UTC
MEAN_ELEMENT_THEORY = SGP/SGP4

EPOCH          = 2025-10-29T20:56:21.473664
MEAN_MOTION    = 13.85396164
ECCENTRICITY   = .00049532
INCLINATION    = 81.3007
RA_OF_ASC_NODE = 65.2773
ARG_OF_PERICENTER = 116.0484
MEAN_ANOMALY   = 244.1183

EPHEMERIS_TYPE = 0
CLASSIFICATION_TYPE = U
NORAD_CAT_ID   = 65984
ELEMENT_SET_NO = 999
REV_AT_EPOCH   = 193
BSTAR          = .31230577E-3
MEAN_MOTION_DOT = .367E-5
MEAN_MOTION_DDOT = 0

CCSDS_OMM_VERS = 2.0
CREATION_DATE  = 
ORIGINATOR     = 

OBJECT_NAME    = SDA-1675
OBJECT_ID      = 2025-230M
CENTER_NAME    = EARTH
REF_FRAME      = TEME
TIME_SYSTEM    = UTC
MEAN_ELEMENT_THEORY = SGP/SGP4

EPOCH          = 2025-10-29T21:06:01.474272
MEAN_MOTION    = 13.84723687
ECCENTRICITY   = .0003609
INCLINATION    = 81.2983
RA_OF_ASC_NODE = 65.2845
ARG_OF_PERICENTER = 76.2373
MEAN_ANOMALY   = 283.9185

EPHEMERIS_TYPE = 0
CLASSIFICATION_TYPE = U
NORAD_CAT_ID   = 65985
ELEMENT_SET_NO = 999
REV_AT_EPOCH   = 193
BSTAR          = .17076309E-3
MEAN_MOTION_DOT = .204E-5
MEAN_MOTION_DDOT = 0

